NORAD_CAT_ID,OBJECT_NAME,OBJECT_TYPE,EPOCH,MEAN_MOTION,ECCENTRICITY,INCLINATION,RA_OF_ASC_NODE,ARG_OF_PERICENTER,MEAN_ANOMALY,BSTAR,MEAN_MOTION_DOT,MEAN_MOTION_DDOT,TLE_LINE0,TLE_LINE1,TLE_LINE2,SEMIMAJOR_AXIS,PERIOD,APOGEE,PERIGEE,DECAYED
53994.0,STARLINK-5125,PAYLOAD,2023-11-27 10:50:39,15.08807804,0.0001739,53.2177,354.5536,89.2221,270.8971,-0.00048612,-8.01e-05,0.0,0 STARLINK-5125,1 53994U 22125AG  23331.45184456 -.00008010  00000-0 -48612-3 0  9996,2 53994  53.2177 354.5536 0001739  89.2221 270.8971 15.08807804 63747,6917.979,95.44,541.047,538.641,0.0
53994.0,STARLINK-5125,PAYLOAD,2023-11-28 01:09:08,15.08818885,0.0001791,53.2173,351.8755,82.4306,277.6889,0.000161,2.274e-05,0.0,0 STARLINK-5125,1 53994U 22125AG  23332.04801103  .00002274  00000-0  16100-3 0  9998,2 53994  53.2173 351.8755 0001791  82.4306 277.6889 15.08818885 63837,6917.945,95.439,541.049,538.571,0.0
53994.0,STARLINK-5125,PAYLOAD,2023-11-28 09:06:03,15.0885602,0.0001821,53.2166,350.3884,77.8207,282.2989,0.0018333,0.00029022,0.0,0 STARLINK-5125,1 53994U 22125AG  23332.37921139  .00029022  00000-0  18333-2 0  9995,2 53994  53.2166 350.3884 0001821  77.8207 282.2989 15.08856020 63889,6917.831,95.437,540.956,538.437,0.0
53994.0,STARLINK-5125,PAYLOAD,2023-11-28 23:24:31,15.08862643,0.0001896,53.2165,347.7173,87.742,272.3789,0.0010234,0.00016047,0.0,0 STARLINK-5125,1 53994U 22125AG  23332.97536667  .00016047  00000-0  10234-2 0  9994,2 53994  53.2165 347.7173 0001896  87.7420 272.3789 15.08862643 63974,6917.811,95.436,540.988,538.365,0.0
53994.0,STARLINK-5125,PAYLOAD,2023-11-29 07:21:26,15.08867543,0.0001884,53.217,346.2262,86.0234,274.0974,0.00072725,0.00011314,0.0,0 STARLINK-5125,1 53994U 22125AG  23333.30656080  .00011314  00000-0  72725-3 0  9990,2 53994  53.2170 346.2262 0001884  86.0234 274.0974 15.08867543 63952,6917.796,95.436,540.965,538.358,0.0
53994.0,STARLINK-5125,PAYLOAD,2023-11-30 04:01:27,15.0885588,0.000175,53.2166,342.3585,65.7966,294.3209,0.00061366,9.496e-05,0.0,0 STARLINK-5125,1 53994U 22125AG  23334.16767899  .00009496  00000-0  61366-3 0  9993,2 53994  53.2166 342.3585 0001750  65.7966 294.3209 15.08855880 64150,6917.832,95.437,540.907,538.486,0.0
53994.0,STARLINK-5125,PAYLOAD,2023-12-01 03:52:14,15.0884216,0.0002211,53.2175,337.8989,107.5094,252.6139,-3.1746e-05,-7.94e-06,0.0,0 STARLINK-5125,1 53994U 22125AG  23335.16127873 -.00000794  00000-0 -31746-4 0  9990,2 53994  53.2175 337.8989 0002211 107.5094 252.6139 15.08842160 64300,6917.874,95.437,541.268,538.209,0.0
53994.0,STARLINK-5125,PAYLOAD,2023-12-01 07:03:00,15.08844244,0.0002262,53.2192,337.3063,110.7223,249.4011,-2.0107e-05,-6.08e-06,0.0,0 STARLINK-5125,1 53994U 22125AG  23335.29375868 -.00000608  00000-0 -20107-4 0  9996,2 53994  53.2192 337.3063 0002262 110.7223 249.4011 15.08844244 64255,6917.867,95.437,541.297,538.168,0.0
53994.0,STARLINK-5125,PAYLOAD,2023-12-02 05:18:23,15.08861785,0.0002019,53.2191,333.1465,90.0913,270.031,0.00043466,6.64e-05,0.0,0 STARLINK-5125,1 53994U 22125AG  23336.22110933  .00006640  00000-0  43466-3 0  9992,2 53994  53.2191 333.1465 0002019  90.0913 270.0310 15.08861785 64464,6917.814,95.436,541.076,538.282,0.0
53994.0,STARLINK-5125,PAYLOAD,2023-12-03 03:33:48,15.08843518,0.0002004,53.2189,328.9803,103.8281,256.2935,3.6622e-05,2.95e-06,0.0,0 STARLINK-5125,1 53994U 22125AG  23337.14847376  .00000295  00000-0  36622-4 0  9999,2 53994  53.2189 328.9803 0002004 103.8281 256.2935 15.08843518 64603,6917.87,95.437,541.121,538.348,0.0
53994.0,STARLINK-5125,PAYLOAD,2023-12-03 05:09:11,15.08844454,0.0002202,53.2187,328.6827,113.0655,247.057,6.1977e-05,6.98e-06,0.0,0 STARLINK-5125,1 53994U 22125AG  23337.21471310  .00000698  00000-0  61977-4 0  9996,2 53994  53.2187 328.6827 0002202 113.0655 247.0570 15.08844454 64548,6917.867,95.437,541.255,538.208,0.0
53994.0,STARLINK-5125,PAYLOAD,2023-12-04 03:24:35,15.08830567,0.000222,53.2175,324.5105,112.7535,247.3692,-0.00022642,-3.889e-05,0.0,0 STARLINK-5125,1 53994U 22125AG  23338.14207938 -.00003889  00000-0 -22642-3 0  9994,2 53994  53.2175 324.5105 0002220 112.7535 247.3692 15.08830567 64753,6917.909,95.438,541.31,538.238,0.0
53994.0,STARLINK-5125,PAYLOAD,2023-12-04 06:35:22,15.08835537,0.0002171,53.218,323.9244,99.3232,260.8006,-0.00022914,-3.933e-05,0.0,0 STARLINK-5125,1 53994U 22125AG  23338.27456152 -.00003933  00000-0 -22914-3 0  9994,2 53994  53.2180 323.9244 0002171  99.3232 260.8006 15.08835537 64701,6917.894,95.438,541.261,538.257,0.0
53994.0,STARLINK-5125,PAYLOAD,2023-12-05 03:15:22,15.08837882,0.0001787,53.2178,320.06,98.0493,262.0702,0.00020971,3.051e-05,0.0,0 STARLINK-5125,1 53994U 22125AG  23339.13568276  .00003051  00000-0  20971-3 0  9991,2 53994  53.2178 320.0600 0001787  98.0493 262.0702 15.08837882 64903,6917.887,95.438,540.988,538.516,0.0
53994.0,STARLINK-5125,PAYLOAD,2023-12-05 08:01:32,15.08843838,0.0001882,53.2174,319.1655,96.3209,263.7998,0.00029743,4.449e-05,0.0,0 STARLINK-5125,1 53994U 22125AG  23339.33440191  .00004449  00000-0  29743-3 0  9996,2 53994  53.2174 319.1655 0001882  96.3209 263.7998 15.08843838 64868,6917.869,95.437,541.036,538.432,0.0
53994.0,STARLINK-5125,PAYLOAD,2023-12-06 04:41:33,15.08837079,0.0001909,53.2175,315.3001,97.1723,262.9487,0.00012437,1.692e-05,0.0,0 STARLINK-5125,1 53994U 22125AG  23340.19552861  .00001692  00000-0  12437-3 0  9999,2 53994  53.2175 315.3001 0001909  97.1723 262.9487 15.08837079 65069,6917.889,95.438,541.075,538.434,0.0
53994.0,STARLINK-5125,PAYLOAD,2023-12-06 06:16:56,15.08839594,0.0002015,53.2192,315.0009,90.6222,269.5001,0.0001597,2.254e-05,0.0,0 STARLINK-5125,1 53994U 22125AG  23340.26176782  .00002254  00000-0  15970-3 0  9991,2 53994  53.2192 315.0009 0002015  90.6222 269.5001 15.08839594 65007,6917.882,95.438,541.141,538.353,0.0
53994.0,STARLINK-5125,PAYLOAD,2023-12-06 17:24:38,15.08841995,0.0001982,53.2172,312.9245,87.9672,272.1547,0.00012532,1.707e-05,0.0,0 STARLINK-5125,1 53994U 22125AG  23340.72544712  .00001707  00000-0  12532-3 0  9997,2 53994  53.2172 312.9245 0001982  87.9672 272.1547 15.08841995 65073,6917.874,95.437,541.11,538.368,0.0
53994.0,STARLINK-5125,PAYLOAD,2023-12-07 07:43:06,15.08843349,0.0001843,53.2179,310.2424,107.7905,252.3288,3.9894e-05,3.47e-06,0.0,0 STARLINK-5125,1 53994U 22125AG  23341.32160624  .00000347  00000-0  39894-4 0  9990,2 53994  53.2179 310.2424 0001843 107.7905 252.3288 15.08843349 65231,6917.87,95.437,541.01,538.46,0.0
53994.0,STARLINK-5125,PAYLOAD,2023-12-08 07:33:53,15.08842723,0.0001881,53.2193,305.7807,95.2214,264.8993,5.3928e-05,5.7e-06,0.0,0 STARLINK-5125,1 53994U 22125AG  23342.31520805  .00000570  00000-0  53928-4 0  9993,2 53994  53.2193 305.7807 0001881  95.2214 264.8993 15.08842723 65312,6917.872,95.437,541.038,538.436,0.0
53994.0,STARLINK-5125,PAYLOAD,2023-12-09 04:13:54,15.08841719,0.0001831,53.2172,301.9161,106.8033,253.316,0.00012945,1.773e-05,0.0,0 STARLINK-5125,1 53994U 22125AG  23343.17632542  .00001773  00000-0  12945-3 0  9999,2 53994  53.2172 301.9161 0001831 106.8033 253.3160 15.08841719 65518,6917.875,95.437,541.007,538.473,0.0
53994.0,STARLINK-5125,PAYLOAD,2023-12-09 21:43:09,15.08839827,0.0001879,53.2185,298.6456,97.1133,263.0073,3.8926e-05,3.31e-06,0.0,0 STARLINK-5125,1 53994U 22125AG  23343.90496970  .00000331  00000-0  38926-4 0  9990,2 53994  53.2185 298.6456 0001879  97.1133 263.0073 15.08839827 65558,6917.881,95.438,541.046,538.446,0.0
53994.0,STARLINK-5125,PAYLOAD,2023-12-11 03:55:29,15.08835559,0.0001776,53.2183,292.9989,100.3378,259.7815,2.5821e-05,1.23e-06,0.0,0 STARLINK-5125,1 53994U 22125AG  23345.16353327  .00000123  00000-0  25821-4 0  9997,2 53994  53.2183 292.9989 0001776 100.3378 259.7815 15.08835559 65811,6917.894,95.438,540.988,538.53,0.0
53994.0,STARLINK-5125,PAYLOAD,2023-12-12 03:46:15,15.08841655,0.0001668,53.2181,288.5397,85.7302,274.3881,0.00012215,1.657e-05,0.0,0 STARLINK-5125,1 53994U 22125AG  23346.15712946  .00001657  00000-0  12215-3 0  9998,2 53994  53.2181 288.5397 0001668  85.7302 274.3881 15.08841655 65962,6917.875,95.437,540.894,538.586,0.0
53994.0,STARLINK-5125,PAYLOAD,2023-12-13 03:37:03,15.08841507,0.0001736,53.2182,284.0788,77.771,282.3477,8.1738e-05,1.013e-05,0.0,0 STARLINK-5125,1 53994U 22125AG  23347.15073336  .00001013  00000-0  81738-4 0  9995,2 53994  53.2182 284.0788 0001736  77.7710 282.3477 15.08841507 66112,6917.876,95.437,540.942,538.54,0.0
53994.0,STARLINK-5125,PAYLOAD,2023-12-14 01:52:27,15.08842924,0.0002154,53.2185,279.9137,64.243,295.8785,4.6596e-05,4.53e-06,0.0,0 STARLINK-5125,1 53994U 22125AG  23348.07809421  .00000453  00000-0  46596-4 0  9999,2 53994  53.2185 279.9137 0002154  64.2430 295.8785 15.08842924 66183,6917.871,95.437,541.227,538.246,0.0
53994.0,STARLINK-5125,PAYLOAD,2023-12-15 01:43:14,15.08842943,0.0001879,53.2176,275.4548,73.4029,286.7169,5.7942e-05,6.34e-06,0.0,0 STARLINK-5125,1 53994U 22125AG  23349.07169208  .00000634  00000-0  57942-4 0  9990,2 53994  53.2176 275.4548 0001879  73.4029 286.7169 15.08842943 66400,6917.871,95.437,541.036,538.437,0.0
53994.0,STARLINK-5125,PAYLOAD,2023-12-15 22:23:15,15.08830571,0.0001957,53.2177,271.5879,126.5903,233.527,-2.8869e-05,-7.47e-06,0.0,0 STARLINK-5125,1 53994U 22125AG  23349.93282212 -.00000747  00000-0 -28869-4 0  9999,2 53994  53.2177 271.5879 0001957 126.5903 233.5270 15.08830571 66466,6917.909,95.438,541.128,538.42,0.0
53994.0,STARLINK-5125,PAYLOAD,2023-12-16 01:34:05,15.08789282,0.0001842,53.2175,270.9959,118.0531,242.0648,-0.00038152,-6.346e-05,0.0,0 STARLINK-5125,1 53994U 22125AG  23350.06533778 -.00006346  00000-0 -38152-3 0  9997,2 53994  53.2175 270.9959 0001842 118.0531 242.0648 15.08789282 66558,6918.035,95.441,541.175,538.626,0.0
53994.0,STARLINK-5125,PAYLOAD,2023-12-16 22:14:02,15.08839618,0.0001539,53.2179,267.1248,100.051,260.0656,2.2435e-05,6.9e-07,0.0,0 STARLINK-5125,1 53994U 22125AG  23350.92642238  .00000069  00000-0  22435-4 0  9996,2 53994  53.2179 267.1248 0001539 100.0510 260.0656 15.08839618 66617,6917.882,95.438,540.811,538.682,0.0
